[{"OBJECT_NAME":"STARLINK-36810","OBJECT_ID":"2026-035V","EPOCH":"2026-03-13T22:00:01.999584","MEAN_MOTION":15.80856445,"ECCENTRICITY":0.00016113,"INCLINATION":97.2829,"RA_OF_ASC_NODE":5.5201,"ARG_OF_PERICENTER":103.745,"MEAN_ANOMALY":105.7094,"EPHEMERIS_TYPE":0,"CLASSIFICATION_TYPE":"U","NORAD_CAT_ID":67898,"ELEMENT_SET_NO":999,"REV_AT_EPOCH":443,"BSTAR":-0.0004329409,"MEAN_MOTION_DOT":-0.00082448,"MEAN_MOTION_DDOT":0},{"OBJECT_NAME":"STARLINK-36878","OBJECT_ID":"2026-035W","EPOCH":"2026-03-13T22:00:01.999584","MEAN_MOTION":15.80832318,"ECCENTRICITY":0.00014002,"INCLINATION":97.2823,"RA_OF_ASC_NODE":5.5233,"ARG_OF_PERICENTER":102.1775,"MEAN_ANOMALY":115.8275,"EPHEMERIS_TYPE":0,"CLASSIFICATION_TYPE":"U","NORAD_CAT_ID":67899,"ELEMENT_SET_NO":999,"REV_AT_EPOCH":443,"BSTAR":-0.00018898947,"MEAN_MOTION_DOT":-0.0003622,"MEAN_MOTION_DDOT":0},{"OBJECT_NAME":"STARLINK-36361","OBJECT_ID":"2026-035X","EPOCH":"2026-03-13T22:00:01.999584","MEAN_MOTION":15.8083845,"ECCENTRICITY":0.00018421,"INCLINATION":97.2854,"RA_OF_ASC_NODE":5.5261,"ARG_OF_PERICENTER":122.995,"MEAN_ANOMALY":99.2782,"EPHEMERIS_TYPE":0,"CLASSIFICATION_TYPE":"U","NORAD_CAT_ID":67900,"ELEMENT_SET_NO":999,"REV_AT_EPOCH":443,"BSTAR":-0.00023121539,"MEAN_MOTION_DOT":-0.00044255,"MEAN_MOTION_DDOT":0},{"OBJECT_NAME":"STARLINK-36336","OBJECT_ID":"2026-035Y","EPOCH":"2026-03-13T22:00:01.999584","MEAN_MOTION":15.80801497,"ECCENTRICITY":0.00017613,"INCLINATION":97.2859,"RA_OF_ASC_NODE":5.5342,"ARG_OF_PERICENTER":88.3071,"MEAN_ANOMALY":146.797,"EPHEMERIS_TYPE":0,"CLASSIFICATION_TYPE":"U","NORAD_CAT_ID":67901,"ELEMENT_SET_NO":999,"REV_AT_EPOCH":448,"BSTAR":7.3950884e-5,"MEAN_MOTION_DOT":0.00014037,"MEAN_MOTION_DDOT":0},{"OBJECT_NAME":"STARLINK-36876","OBJECT_ID":"2026-035Z","EPOCH":"2026-03-13T22:00:01.999584","MEAN_MOTION":15.80904777,"ECCENTRICITY":0.00015436,"INCLINATION":97.2857,"RA_OF_ASC_NODE":5.5303,"ARG_OF_PERICENTER":87.8271,"MEAN_ANOMALY":138.7034,"EPHEMERIS_TYPE":0,"CLASSIFICATION_TYPE":"U","NORAD_CAT_ID":67902,"ELEMENT_SET_NO":999,"REV_AT_EPOCH":443,"BSTAR":-0.00070847643,"MEAN_MOTION_DOT":-0.00134332,"MEAN_MOTION_DDOT":0},{"OBJECT_NAME":"STARLINK-36257","OBJECT_ID":"2026-035AA","EPOCH":"2026-03-13T22:00:01.999584","MEAN_MOTION":15.7869405,"ECCENTRICITY":0.00017741,"INCLINATION":97.2834,"RA_OF_ASC_NODE":5.5308,"ARG_OF_PERICENTER":96.432,"MEAN_ANOMALY":132.3595,"EPHEMERIS_TYPE":0,"CLASSIFICATION_TYPE":"U","NORAD_CAT_ID":67903,"ELEMENT_SET_NO":999,"REV_AT_EPOCH":448,"BSTAR":-0.013096343,"MEAN_MOTION_DOT":-0.01977731,"MEAN_MOTION_DDOT":0},{"OBJECT_NAME":"STARLINK-36814","OBJECT_ID":"2026-036A","EPOCH":"2026-03-13T22:00:01.999584","MEAN_MOTION":15.57892394,"ECCENTRICITY":0.00018025,"INCLINATION":42.9993,"RA_OF_ASC_NODE":224.5279,"ARG_OF_PERICENTER":278.9172,"MEAN_ANOMALY":47.9607,"EPHEMERIS_TYPE":0,"CLASSIFICATION_TYPE":"U","NORAD_CAT_ID":67904,"ELEMENT_SET_NO":999,"REV_AT_EPOCH":432,"BSTAR":-0.027588272,"MEAN_MOTION_DOT":-0.01872354,"MEAN_MOTION_DDOT":0},{"OBJECT_NAME":"STARLINK-36729","OBJECT_ID":"2026-036B","EPOCH":"2026-03-13T22:00:01.999584","MEAN_MOTION":15.6742239,"ECCENTRICITY":0.00016295,"INCLINATION":42.9996,"RA_OF_ASC_NODE":224.1242,"ARG_OF_PERICENTER":288.2895,"MEAN_ANOMALY":201.5194,"EPHEMERIS_TYPE":0,"CLASSIFICATION_TYPE":"U","NORAD_CAT_ID":67905,"ELEMENT_SET_NO":999,"REV_AT_EPOCH":432,"BSTAR":-0.019110731,"MEAN_MOTION_DOT":-0.01888922,"MEAN_MOTION_DDOT":0},{"OBJECT_NAME":"STARLINK-36763","OBJECT_ID":"2026-036C","EPOCH":"2026-03-13T22:00:01.999584","MEAN_MOTION":15.68364564,"ECCENTRICITY":0.00014733,"INCLINATION":42.9992,"RA_OF_ASC_NODE":224.0848,"ARG_OF_PERICENTER":281.9544,"MEAN_ANOMALY":223.5889,"EPHEMERIS_TYPE":0,"CLASSIFICATION_TYPE":"U","NORAD_CAT_ID":67906,"ELEMENT_SET_NO":999,"REV_AT_EPOCH":432,"BSTAR":-0.01838092,"MEAN_MOTION_DOT":-0.01888862,"MEAN_MOTION_DDOT":0},{"OBJECT_NAME":"STARLINK-36742","OBJECT_ID":"2026-036D","EPOCH":"2026-03-13T22:00:01.999584","MEAN_MOTION":15.67445794,"ECCENTRICITY":0.0001565,"INCLINATION":42.9994,"RA_OF_ASC_NODE":224.1015,"ARG_OF_PERICENTER":286.9079,"MEAN_ANOMALY":211.7586,"EPHEMERIS_TYPE":0,"CLASSIFICATION_TYPE":"U","NORAD_CAT_ID":67907,"ELEMENT_SET_NO":999,"REV_AT_EPOCH":432,"BSTAR":-0.019083019,"MEAN_MOTION_DOT":-0.01888059,"MEAN_MOTION_DDOT":0},{"OBJECT_NAME":"STARLINK-36827","OBJECT_ID":"2026-036E","EPOCH":"2026-03-13T22:00:01.999584","MEAN_MOTION":15.71966501,"ECCENTRICITY":0.00014929,"INCLINATION":42.9993,"RA_OF_ASC_NODE":223.9716,"ARG_OF_PERICENTER":279.8574,"MEAN_ANOMALY":270.9648,"EPHEMERIS_TYPE":0,"CLASSIFICATION_TYPE":"U","NORAD_CAT_ID":67908,"ELEMENT_SET_NO":999,"REV_AT_EPOCH":432,"BSTAR":-0.015747998,"MEAN_MOTION_DOT":-0.01847909,"MEAN_MOTION_DDOT":0},{"OBJECT_NAME":"STARLINK-36822","OBJECT_ID":"2026-036F","EPOCH":"2026-03-13T22:00:01.999584","MEAN_MOTION":15.67985088,"ECCENTRICITY":0.0001427,"INCLINATION":42.9994,"RA_OF_ASC_NODE":224.0642,"ARG_OF_PERICENTER":287.9247,"MEAN_ANOMALY":226.0379,"EPHEMERIS_TYPE":0,"CLASSIFICATION_TYPE":"U","NORAD_CAT_ID":67909,"ELEMENT_SET_NO":999,"REV_AT_EPOCH":432,"BSTAR":-0.01854033,"MEAN_MOTION_DOT":-0.01876965,"MEAN_MOTION_DDOT":0},{"OBJECT_NAME":"STARLINK-36847","OBJECT_ID":"2026-036G","EPOCH":"2026-03-13T22:00:01.999584","MEAN_MOTION":15.67129154,"ECCENTRICITY":0.0001524,"INCLINATION":42.9994,"RA_OF_ASC_NODE":224.0799,"ARG_OF_PERICENTER":285.8829,"MEAN_ANOMALY":221.6488,"EPHEMERIS_TYPE":0,"CLASSIFICATION_TYPE":"U","NORAD_CAT_ID":67910,"ELEMENT_SET_NO":999,"REV_AT_EPOCH":432,"BSTAR":-0.019257404,"MEAN_MOTION_DOT":-0.01881458,"MEAN_MOTION_DDOT":0},{"OBJECT_NAME":"STARLINK-36736","OBJECT_ID":"2026-036H","EPOCH":"2026-03-13T22:00:01.999584","MEAN_MOTION":15.7542864,"ECCENTRICITY":0.00016436,"INCLINATION":42.9993,"RA_OF_ASC_NODE":223.8776,"ARG_OF_PERICENTER":277.2949,"MEAN_ANOMALY":311.0277,"EPHEMERIS_TYPE":0,"CLASSIFICATION_TYPE":"U","NORAD_CAT_ID":67911,"ELEMENT_SET_NO":999,"REV_AT_EPOCH":432,"BSTAR":-0.013675836,"MEAN_MOTION_DOT":-0.01864416,"MEAN_MOTION_DDOT":0},{"OBJECT_NAME":"STARLINK-36676","OBJECT_ID":"2026-036J","EPOCH":"2026-03-13T22:00:01.999584","MEAN_MOTION":15.7330682,"ECCENTRICITY":0.000152,"INCLINATION":42.9992,"RA_OF_ASC_NODE":223.9019,"ARG_OF_PERICENTER":278.7822,"MEAN_ANOMALY":299.9389,"EPHEMERIS_TYPE":0,"CLASSIFICATION_TYPE":"U","NORAD_CAT_ID":67912,"ELEMENT_SET_NO":999,"REV_AT_EPOCH":432,"BSTAR":-0.014876475,"MEAN_MOTION_DOT":-0.01849597,"MEAN_MOTION_DDOT":0},{"OBJECT_NAME":"STARLINK-36690","OBJECT_ID":"2026-036K","EPOCH":"2026-03-13T22:00:01.999584","MEAN_MOTION":15.73348675,"ECCENTRICITY":0.00015432,"INCLINATION":42.9993,"RA_OF_ASC_NODE":223.8904,"ARG_OF_PERICENTER":278.7773,"MEAN_ANOMALY":304.5229,"EPHEMERIS_TYPE":0,"CLASSIFICATION_TYPE":"U","NORAD_CAT_ID":67913,"ELEMENT_SET_NO":999,"REV_AT_EPOCH":432,"BSTAR":-0.014846924,"MEAN_MOTION_DOT":-0.01849349,"MEAN_MOTION_DDOT":0}]
