STARLINK-36810          
1 67898U 26035V   26072.91668981 -.00082448  00000+0 -43294-3 0  9991
2 67898  97.2829   5.5201 0001611 103.7450 105.7094 15.80856445  4432
STARLINK-36878          
1 67899U 26035W   26072.91668981 -.00036220  00000+0 -18899-3 0  9992
2 67899  97.2823   5.5233 0001400 102.1775 115.8275 15.80832318  4437
STARLINK-36361          
1 67900U 26035X   26072.91668981 -.00044255  00000+0 -23122-3 0  9997
2 67900  97.2854   5.5261 0001842 122.9950  99.2782 15.80838450  4431
STARLINK-36336          
1 67901U 26035Y   26072.91668981  .00014037  00000+0  73951-4 0  9997
2 67901  97.2859   5.5342 0001761  88.3071 146.7970 15.80801497  4489
STARLINK-36876          
1 67902U 26035Z   26072.91668981 -.00134332  00000+0 -70848-3 0  9992
2 67902  97.2857   5.5303 0001543  87.8271 138.7034 15.80904777  4431
STARLINK-36257          
1 67903U 26035AA  26072.91668981 -.01977731  00000+0 -13096-1 0  9992
2 67903  97.2834   5.5308 0001774  96.4320 132.3595 15.78694050  4483
STARLINK-36814          
1 67904U 26036A   26072.91668981 -.01872354  00000+0 -27588-1 0  9990
2 67904  42.9993 224.5279 0001802 278.9172  47.9607 15.57892394  4327
STARLINK-36729          
1 67905U 26036B   26072.91668981 -.01888922  00000+0 -19111-1 0  9992
2 67905  42.9996 224.1242 0001629 288.2895 201.5194 15.67422390  4325
STARLINK-36763          
1 67906U 26036C   26072.91668981 -.01888862  00000+0 -18381-1 0  9994
2 67906  42.9992 224.0848 0001473 281.9544 223.5889 15.68364564  4325
STARLINK-36742          
1 67907U 26036D   26072.91668981 -.01888059  00000+0 -19083-1 0  9993
2 67907  42.9994 224.1015 0001565 286.9079 211.7586 15.67445794  4322
STARLINK-36827          
1 67908U 26036E   26072.91668981 -.01847909  00000+0 -15748-1 0  9997
2 67908  42.9993 223.9716 0001492 279.8574 270.9648 15.71966501  4322
STARLINK-36822          
1 67909U 26036F   26072.91668981 -.01876965  00000+0 -18540-1 0  9995
2 67909  42.9994 224.0642 0001427 287.9247 226.0379 15.67985088  4328
STARLINK-36847          
1 67910U 26036G   26072.91668981 -.01881458  00000+0 -19257-1 0  9996
2 67910  42.9994 224.0799 0001524 285.8829 221.6488 15.67129154  4320
STARLINK-36736          
1 67911U 26036H   26072.91668981 -.01864416  00000+0 -13676-1 0  9991
2 67911  42.9993 223.8776 0001643 277.2949 311.0277 15.75428640  4323
STARLINK-36676          
1 67912U 26036J   26072.91668981 -.01849597  00000+0 -14876-1 0  9998
2 67912  42.9992 223.9019 0001520 278.7822 299.9389 15.73306820  4325
STARLINK-36690          
1 67913U 26036K   26072.91668981 -.01849349  00000+0 -14847-1 0  9992
2 67913  42.9993 223.8904 0001543 278.7773 304.5229 15.73348675  4329
